[{"OBJECT_NAME":"STARLINK-31460","OBJECT_ID":"2024-036L","EPOCH":"2026-03-09T23:11:26.123712","MEAN_MOTION":15.30213399,"ECCENTRICITY":0.00013278,"INCLINATION":53.16,"RA_OF_ASC_NODE":76.9822,"ARG_OF_PERICENTER":88.5121,"MEAN_ANOMALY":271.6032,"EPHEMERIS_TYPE":0,"CLASSIFICATION_TYPE":"U","NORAD_CAT_ID":59008,"ELEMENT_SET_NO":999,"REV_AT_EPOCH":11536,"BSTAR":-9.737316e-5,"MEAN_MOTION_DOT":-3.243e-5,"MEAN_MOTION_DDOT":0},{"OBJECT_NAME":"VSP ROSE","OBJECT_ID":"2024-043AC","EPOCH":"2026-03-09T21:48:06.922944","MEAN_MOTION":15.27746075,"ECCENTRICITY":0.00099339,"INCLINATION":97.5443,"RA_OF_ASC_NODE":203.927,"ARG_OF_PERICENTER":232.2702,"MEAN_ANOMALY":127.7637,"EPHEMERIS_TYPE":0,"CLASSIFICATION_TYPE":"U","NORAD_CAT_ID":59124,"ELEMENT_SET_NO":999,"REV_AT_EPOCH":11182,"BSTAR":0.00025731354,"MEAN_MOTION_DOT":6.907e-5,"MEAN_MOTION_DDOT":0}]
